******** Week 937 almanac for PRN-07 ********
ID:                         07
Health:                     000
Eccentricity:               2.8352737427E-003
Time of Applicability(s):  430080.0000
Orbital Inclination(rad):  -0.0829488127
Rate of Right Ascen(r/s):  -2.2172352100E-009
SQRT(A)  (m 1/2):           6493.931641
Right Ascen at Week(rad):  -2.8342238750E+000
Argument of Perigee(rad):  -2.615328262
Mean Anom(rad):             9.3890222800E-001
Af0(s):                    -5.1212310000E-004
Af1(s/s):                  -6.1845600000E-011
week:                        937

******** Week 937 almanac for PRN-08 ********
ID:                         08
Health:                     000
Eccentricity:               2.6607513428E-003
Time of Applicability(s):  430080.0000
Orbital Inclination(rad):   0.1241565700
Rate of Right Ascen(r/s):  -1.4400599800E-009
SQRT(A)  (m 1/2):           6493.856934
Right Ascen at Week(rad):  -6.3671587700E-001
Argument of Perigee(rad):  -3.118125294
Mean Anom(rad):            -7.5464065000E-001
Af0(s):                     1.6593930000E-004
Af1(s/s):                  -2.5465900000E-011
week:                        937

******** Week 937 almanac for PRN-09 ********
ID:                         09
Health:                     000
Eccentricity:               1.1503219604E-002
Time of Applicability(s):  430080.0000
Orbital Inclination(rad):   0.0085327681
Rate of Right Ascen(r/s):  -2.0343704500E-009
SQRT(A)  (m 1/2):           6492.826172
Right Ascen at Week(rad):   1.5429457370E+000
Argument of Perigee(rad):  -2.339967475
Mean Anom(rad):             2.3466280830E+000
Af0(s):                    -2.4890900000E-004
Af1(s/s):                  -5.0931700000E-011
week:                        937

